start=new Date('2022-01-12T00:00:00.000Z').valueOf();
sats=[{"SEMIMAJOR_AXIS":"6925.379","PERIAPSIS":"545.880","OBJECT_NAME":"STARLINK-1813","TIME_SYSTEM":"UTC","MEAN_MOTION":"15.06390089","APOAPSIS":"548.608","RA_OF_ASC_NODE":"215.6357","ARG_OF_PERICENTER":"77.9552","MEAN_ELEMENT_THEORY":"SGP4","INCLINATION":"53.0536","GP_ID":"193692374","MEAN_MOTION_DOT":"0.00000760","COUNTRY_CODE":"US","ECCENTRICITY":"0.00019700","REF_FRAME":"TEME","LAUNCH_DATE":"2020-10-18","EPOCH":"2022-01-11T19:31:26.787072","TLE_LINE2":"2 46711  53.0536 215.6357 0001970  77.9552 282.1658 15.06390089 68359","BSTAR":"0.00006996300000","CENTER_NAME":"EARTH","SITE":"AFETR","MEAN_ANOMALY":"282.1658","ELEMENT_SET_NO":"999","CLASSIFICATION_TYPE":"U","FILE":"3269987","OBJECT_TYPE":"PAYLOAD","OBJECT_ID":"2020-073AT","TLE_LINE1":"1 46711U 20073AT  22011.81350448  .00000760  00000-0  69963-4 0  9990","RCS_SIZE":"LARGE","DECAY_DATE":null,"MEAN_MOTION_DDOT":"0.0000000000000","REV_AT_EPOCH":"6835","NORAD_CAT_ID":"46711","EPHEMERIS_TYPE":"0","PERIOD":"95.593"},{"GP_ID":"193692119","MEAN_ELEMENT_THEORY":"SGP4","ARG_OF_PERICENTER":"72.7596","INCLINATION":"53.0515","ECCENTRICITY":"0.00022490","REF_FRAME":"TEME","MEAN_MOTION_DOT":"0.00002074","COUNTRY_CODE":"US","OBJECT_NAME":"STARLINK-1814","PERIAPSIS":"545.664","TIME_SYSTEM":"UTC","SEMIMAJOR_AXIS":"6925.357","APOAPSIS":"548.779","RA_OF_ASC_NODE":"215.4947","MEAN_MOTION":"15.06397288","FILE":"3269987","OBJECT_ID":"2020-073AU","OBJECT_TYPE":"PAYLOAD","EPHEMERIS_TYPE":"0","NORAD_CAT_ID":"46712","REV_AT_EPOCH":"6835","PERIOD":"95.592","MEAN_MOTION_DDOT":"0.0000000000000","DECAY_DATE":null,"TLE_LINE1":"1 46712U 20073AU  22011.84574673  .00002074  00000-0  15812-3 0  9995","RCS_SIZE":"LARGE","BSTAR":"0.00015812000000","TLE_LINE2":"2 46712  53.0515 215.4947 0002249  72.7596 287.3639 15.06397288 68355","LAUNCH_DATE":"2020-10-18","EPOCH":"2022-01-11T20:17:52.517472","SITE":"AFETR","CENTER_NAME":"EARTH","ELEMENT_SET_NO":"999","CLASSIFICATION_TYPE":"U","MEAN_ANOMALY":"287.3639"},{"RA_OF_ASC_NODE":"216.3324","APOAPSIS":"548.825","MEAN_MOTION":"15.06400682","OBJECT_NAME":"STARLINK-1815","PERIAPSIS":"545.598","TIME_SYSTEM":"UTC","SEMIMAJOR_AXIS":"6925.346","ECCENTRICITY":"0.00023300","REF_FRAME":"TEME","COUNTRY_CODE":"US","MEAN_MOTION_DOT":"0.00001666","GP_ID":"193693375","MEAN_ELEMENT_THEORY":"SGP4","ARG_OF_PERICENTER":"71.0251","INCLINATION":"53.0514","CENTER_NAME":"EARTH","SITE":"AFETR","ELEMENT_SET_NO":"999","CLASSIFICATION_TYPE":"U","MEAN_ANOMALY":"289.0990","BSTAR":"0.00013074000000","TLE_LINE2":"2 46713  53.0514 216.3324 0002330  71.0251 289.0990 15.06400682 68324","LAUNCH_DATE":"2020-10-18","EPOCH":"2022-01-11T15:48:30.704544","EPHEMERIS_TYPE":"0","NORAD_CAT_ID":"46713","REV_AT_EPOCH":"6832","PERIOD":"95.592","DECAY_DATE":null,"MEAN_MOTION_DDOT":"0.0000000000000","RCS_SIZE":"LARGE","TLE_LINE1":"1 46713U 20073AV  22011.65868871  .00001666  00000-0  13074-3 0  9995","FILE":"3269987","OBJECT_ID":"2020-073AV","OBJECT_TYPE":"PAYLOAD"},{"TIME_SYSTEM":"UTC","OBJECT_NAME":"STARLINK-1816","PERIAPSIS":"545.555","SEMIMAJOR_AXIS":"6925.351","APOAPSIS":"548.877","MEAN_MOTION":"15.06399186","RA_OF_ASC_NODE":"215.4866","GP_ID":"193693619","INCLINATION":"53.0546","ARG_OF_PERICENTER":"69.1719","MEAN_ELEMENT_THEORY":"SGP4","REF_FRAME":"TEME","ECCENTRICITY":"0.00023980","MEAN_MOTION_DOT":"0.00000656","COUNTRY_CODE":"US","TLE_LINE2":"2 46714  53.0546 215.4866 0002398  69.1719 290.9527 15.06399186 68358","BSTAR":"0.00006299100000","EPOCH":"2022-01-11T20:19:13.849248","LAUNCH_DATE":"2020-10-18","MEAN_ANOMALY":"290.9527","CLASSIFICATION_TYPE":"U","ELEMENT_SET_NO":"999","CENTER_NAME":"EARTH","SITE":"AFETR","OBJECT_TYPE":"PAYLOAD","OBJECT_ID":"2020-073AW","FILE":"3269987","PERIOD":"95.592","REV_AT_EPOCH":"6835","NORAD_CAT_ID":"46714","EPHEMERIS_TYPE":"0","RCS_SIZE":"LARGE","TLE_LINE1":"1 46714U 20073AW  22011.84668807  .00000656  00000-0  62991-4 0  9995","MEAN_MOTION_DDOT":"0.0000000000000","DECAY_DATE":null},{"PERIOD":"95.593","EPHEMERIS_TYPE":"0","NORAD_CAT_ID":"46715","REV_AT_EPOCH":"6835","DECAY_DATE":null,"MEAN_MOTION_DDOT":"0.0000000000000","TLE_LINE1":"1 46715U 20073AX  22011.84299092  .00000790  00000-0  71996-4 0  9996","RCS_SIZE":"LARGE","OBJECT_ID":"2020-073AX","OBJECT_TYPE":"PAYLOAD","FILE":"3269987","CLASSIFICATION_TYPE":"U","ELEMENT_SET_NO":"999","MEAN_ANOMALY":"294.6504","CENTER_NAME":"EARTH","SITE":"AFETR","BSTAR":"0.00007199600000","TLE_LINE2":"2 46715  53.0537 215.5027 0002325  65.4727 294.6504 15.06391585 68358","EPOCH":"2022-01-11T20:13:54.415488","LAUNCH_DATE":"2020-10-18","REF_FRAME":"TEME","ECCENTRICITY":"0.00023250","COUNTRY_CODE":"US","MEAN_MOTION_DOT":"0.00000790","GP_ID":"193691875","INCLINATION":"53.0537","MEAN_ELEMENT_THEORY":"SGP4","ARG_OF_PERICENTER":"65.4727","APOAPSIS":"548.849","RA_OF_ASC_NODE":"215.5027","MEAN_MOTION":"15.06391585","TIME_SYSTEM":"UTC","OBJECT_NAME":"STARLINK-1817","PERIAPSIS":"545.629","SEMIMAJOR_AXIS":"6925.374"},{"RA_OF_ASC_NODE":"230.1448","APOAPSIS":"548.837","MEAN_MOTION":"15.06408232","TIME_SYSTEM":"UTC","PERIAPSIS":"545.540","OBJECT_NAME":"STARLINK-1818","SEMIMAJOR_AXIS":"6925.323","REF_FRAME":"TEME","ECCENTRICITY":"0.00023800","MEAN_MOTION_DOT":"0.00000662","COUNTRY_CODE":"US","GP_ID":"193692619","INCLINATION":"53.0542","MEAN_ELEMENT_THEORY":"SGP4","ARG_OF_PERICENTER":"68.6290","ELEMENT_SET_NO":"999","CLASSIFICATION_TYPE":"U","MEAN_ANOMALY":"291.4953","SITE":"AFETR","CENTER_NAME":"EARTH","BSTAR":"0.00006333000000","TLE_LINE2":"2 46716  53.0542 230.1448 0002380  68.6290 291.4953 15.06408232 68155","EPOCH":"2022-01-11T22:11:18.882240","LAUNCH_DATE":"2020-10-18","PERIOD":"95.592","EPHEMERIS_TYPE":"0","REV_AT_EPOCH":"6815","NORAD_CAT_ID":"46716","MEAN_MOTION_DDOT":"0.0000000000000","DECAY_DATE":null,"TLE_LINE1":"1 46716U 20073AY  22011.92452410  .00000662  00000-0  63330-4 0  9992","RCS_SIZE":"LARGE","OBJECT_ID":"2020-073AY","OBJECT_TYPE":"PAYLOAD","FILE":"3269987"},{"COUNTRY_CODE":"US","MEAN_MOTION_DOT":"0.00001022","ECCENTRICITY":"0.00022240","REF_FRAME":"TEME","ARG_OF_PERICENTER":"72.5512","MEAN_ELEMENT_THEORY":"SGP4","INCLINATION":"53.0541","GP_ID":"193663073","RA_OF_ASC_NODE":"216.8983","APOAPSIS":"548.738","MEAN_MOTION":"15.06405271","SEMIMAJOR_AXIS":"6925.332","OBJECT_NAME":"STARLINK-1820","PERIAPSIS":"545.657","TIME_SYSTEM":"UTC","RCS_SIZE":"LARGE","TLE_LINE1":"1 46717U 20073AZ  22011.52968383  .00001022  00000-0  87478-4 0  9990","MEAN_MOTION_DDOT":"0.0000000000000","DECAY_DATE":null,"NORAD_CAT_ID":"46717","REV_AT_EPOCH":"6830","EPHEMERIS_TYPE":"0","PERIOD":"95.592","FILE":"3269657","OBJECT_TYPE":"PAYLOAD","OBJECT_ID":"2020-073AZ","CENTER_NAME":"EARTH","SITE":"AFETR","MEAN_ANOMALY":"287.5720","ELEMENT_SET_NO":"999","CLASSIFICATION_TYPE":"U","LAUNCH_DATE":"2020-10-18","EPOCH":"2022-01-11T12:42:44.682912","TLE_LINE2":"2 46717  53.0541 216.8983 0002224  72.5512 287.5720 15.06405271 68303","BSTAR":"0.00008747800000"},{"SEMIMAJOR_AXIS":"6925.350","TIME_SYSTEM":"UTC","PERIAPSIS":"545.633","OBJECT_NAME":"STARLINK-1821","APOAPSIS":"548.798","MEAN_MOTION":"15.06399501","RA_OF_ASC_NODE":"232.9188","INCLINATION":"53.0527","MEAN_ELEMENT_THEORY":"SGP4","ARG_OF_PERICENTER":"73.6725","GP_ID":"193662321","MEAN_MOTION_DOT":"-0.00000479","COUNTRY_CODE":"US","REF_FRAME":"TEME","ECCENTRICITY":"0.00022850","EPOCH":"2022-01-11T07:19:37.124256","LAUNCH_DATE":"2020-10-18","BSTAR":"-0.00001324900000","TLE_LINE2":"2 46718  53.0527 232.9188 0002285  73.6725 286.4515 15.06399501 68060","CLASSIFICATION_TYPE":"U","ELEMENT_SET_NO":"999","MEAN_ANOMALY":"286.4515","SITE":"AFETR","CENTER_NAME":"EARTH","OBJECT_ID":"2020-073BA","OBJECT_TYPE":"PAYLOAD","FILE":"3269657","DECAY_DATE":null,"MEAN_MOTION_DDOT":"0.0000000000000","TLE_LINE1":"1 46718U 20073BA  22011.30529079 -.00000479  00000-0 -13249-4 0  9994","RCS_SIZE":"LARGE","PERIOD":"95.592","EPHEMERIS_TYPE":"0","REV_AT_EPOCH":"6806","NORAD_CAT_ID":"46718"},{"SEMIMAJOR_AXIS":"6925.348","TIME_SYSTEM":"UTC","OBJECT_NAME":"STARLINK-1822","PERIAPSIS":"545.551","APOAPSIS":"548.876","RA_OF_ASC_NODE":"195.3105","MEAN_MOTION":"15.06400084","INCLINATION":"53.0548","ARG_OF_PERICENTER":"77.5574","MEAN_ELEMENT_THEORY":"SGP4","GP_ID":"193692375","MEAN_MOTION_DOT":"0.00000928","COUNTRY_CODE":"US","REF_FRAME":"TEME","ECCENTRICITY":"0.00024010","EPOCH":"2022-01-11T21:14:56.481216","LAUNCH_DATE":"2020-10-18","TLE_LINE2":"2 46719  53.0548 195.3105 0002401  77.5574 282.5684 15.06400084 68647","BSTAR":"0.00008121000000","MEAN_ANOMALY":"282.5684","ELEMENT_SET_NO":"999","CLASSIFICATION_TYPE":"U","SITE":"AFETR","CENTER_NAME":"EARTH","OBJECT_TYPE":"PAYLOAD","OBJECT_ID":"2020-073BB","FILE":"3269987","TLE_LINE1":"1 46719U 20073BB  22011.88537594  .00000928  00000-0  81210-4 0  9999","RCS_SIZE":"LARGE","MEAN_MOTION_DDOT":"0.0000000000000","DECAY_DATE":null,"PERIOD":"95.592","NORAD_CAT_ID":"46719","REV_AT_EPOCH":"6864","EPHEMERIS_TYPE":"0"},{"TLE_LINE2":"2 46720  53.0537 164.2909 0001154 202.8436 157.2520 15.48110317 69065","BSTAR":"0.00026136000000","EPOCH":"2022-01-11T17:02:37.025664","LAUNCH_DATE":"2020-10-18","MEAN_ANOMALY":"157.2520","CLASSIFICATION_TYPE":"U","ELEMENT_SET_NO":"999","SITE":"AFETR","CENTER_NAME":"EARTH","OBJECT_TYPE":"PAYLOAD","OBJECT_ID":"2020-073BC","FILE":"3269987","PERIOD":"93.017","REV_AT_EPOCH":"6906","NORAD_CAT_ID":"46720","EPHEMERIS_TYPE":"0","RCS_SIZE":"LARGE","TLE_LINE1":"1 46720U 20073BC  22011.71015076  .00013521  00000-0  26136-3 0  9997","MEAN_MOTION_DDOT":"0.0000000000000","DECAY_DATE":null,"TIME_SYSTEM":"UTC","PERIAPSIS":"421.472","OBJECT_NAME":"STARLINK-1823","SEMIMAJOR_AXIS":"6800.391","APOAPSIS":"423.041","MEAN_MOTION":"15.48110317","RA_OF_ASC_NODE":"164.2909","GP_ID":"193692120","INCLINATION":"53.0537","ARG_OF_PERICENTER":"202.8436","MEAN_ELEMENT_THEORY":"SGP4","REF_FRAME":"TEME","ECCENTRICITY":"0.00011540","COUNTRY_CODE":"US","MEAN_MOTION_DOT":"0.00013521"}];
